{"type": "FeatureCollection", "features": [ {"type": "Feature", "properties": {"norad_id": 34529, "name": "IRIDIUM 33 DEB", "group": "iridium-33-debris", "lat": 22.393847962751725, "lon": 37.816498992598305, "alt_km": 759.2693027029682, "timestamp": "2025-12-10T14:53:37.473437+00:00", "meta": {"OBJECT_NAME": "IRIDIUM 33 DEB", "OBJECT_ID": "1997-051HW", "EPOCH": "2025-12-10T04:47:15.676800", "MEAN_MOTION": 14.40612775, "ECCENTRICITY": 0.00044781, "INCLINATION": 86.3643, "RA_OF_ASC_NODE": 36.4947, "ARG_OF_PERICENTER": 185.6472, "MEAN_ANOMALY": 174.4677, "EPHEMERIS_TYPE": 0, "CLASSIFICATION_TYPE": "U", "NORAD_CAT_ID": 34529, "ELEMENT_SET_NO": 999, "REV_AT_EPOCH": 88105, "BSTAR": 0.00018242164, "MEAN_MOTION_DOT": 6.01e-06, "MEAN_MOTION_DDOT": 0}, "tle": {"line1": "1 34529U 97051HW  25344.19948700  .00000601  00000+0  18242-3 0  9997", "line2": "2 34529  86.3643  36.4947 0004478 185.6472 174.4677 14.40612775881059"}}, "geometry": {"type": "Point", "coordinates": [37.816498992598305, 22.393847962751725]}}, {"type": "Feature", "properties": {"norad_id": 34538, "name": "IRIDIUM 33 DEB", "group": "iridium-33-debris", "lat": -23.999338821442922, "lon": -171.85475755787195, "alt_km": 770.9744531700971, "timestamp": "2025-12-10T14:53:37.473446+00:00", "meta": {"OBJECT_NAME": "IRIDIUM 33 DEB", "OBJECT_ID": "1997-051JF", "EPOCH": "2025-12-10T02:34:36.380064", "MEAN_MOTION": 14.42622589, "ECCENTRICITY": 0.00330991, "INCLINATION": 86.2772, "RA_OF_ASC_NODE": 6.7088, "ARG_OF_PERICENTER": 336.9894, "MEAN_ANOMALY": 83.6155, "EPHEMERIS_TYPE": 0, "CLASSIFICATION_TYPE": "U", "NORAD_CAT_ID": 34538, "ELEMENT_SET_NO": 999, "REV_AT_EPOCH": 87718, "BSTAR": 0.001246863, "MEAN_MOTION_DOT": 4.187e-05, "MEAN_MOTION_DDOT": 0}, "tle": {"line1": "1 34538U 97051JF  25344.10736551  .00004187  00000+0  12469-2 0  9994", "line2": "2 34538  86.2772   6.7088 0033099 336.9894  83.6155 14.42622589877184"}}, "geometry": {"type": "Point", "coordinates": [-171.85475755787195, -23.999338821442922]}}, {"type": "Feature", "properties": {"norad_id": 34540, "name": "IRIDIUM 33 DEB", "group": "iridium-33-debris", "lat": 13.427484191013317, "lon": -50.541778056596414, "alt_km": 655.5381797816435, "timestamp": "2025-12-10T14:53:37.473456+00:00", "meta": {"OBJECT_NAME": "IRIDIUM 33 DEB", "OBJECT_ID": "1997-051JH", "EPOCH": "2025-12-09T21:03:31.895136", "MEAN_MOTION": 14.75221849, "ECCENTRICITY": 0.00159167, "INCLINATION": 86.3107, "RA_OF_ASC_NODE": 308.9152, "ARG_OF_PERICENTER": 169.314, "MEAN_ANOMALY": 220.3312, "EPHEMERIS_TYPE": 0, "CLASSIFICATION_TYPE": "U", "NORAD_CAT_ID": 34540, "ELEMENT_SET_NO": 999, "REV_AT_EPOCH": 88979, "BSTAR": 0.0025690418, "MEAN_MOTION_DOT": 0.00017451, "MEAN_MOTION_DDOT": 0}, "tle": {"line1": "1 34540U 97051JH  25343.87745249  .00017451  00000+0  25690-2 0  9992", "line2": "2 34540  86.3107 308.9152 0015916 169.3140 220.3312 14.75221849889794"}}, "geometry": {"type": "Point", "coordinates": [-50.541778056596414, 13.427484191013317]}}, {"type": "Feature", "properties": {"norad_id": 34648, "name": "IRIDIUM 33 DEB", "group": "iridium-33-debris", "lat": -73.60616392240186, "lon": -89.5876097009856, "alt_km": 736.5708329475628, "timestamp": "2025-12-10T14:53:37.473465+00:00", "meta": {"OBJECT_NAME": "IRIDIUM 33 DEB", "OBJECT_ID": "1997-051JZ", "EPOCH": "2025-12-10T06:43:30.394560", "MEAN_MOTION": 14.11372346, "ECCENTRICITY": 0.01835322, "INCLINATION": 86.3905, "RA_OF_ASC_NODE": 282.939, "ARG_OF_PERICENTER": 306.5499, "MEAN_ANOMALY": 51.8907, "EPHEMERIS_TYPE": 0, "CLASSIFICATION_TYPE": "U", "NORAD_CAT_ID": 34648, "ELEMENT_SET_NO": 999, "REV_AT_EPOCH": 84926, "BSTAR": 0.01266127, "MEAN_MOTION_DOT": 0.00026918, "MEAN_MOTION_DDOT": 0}, "tle": {"line1": "1 34648U 97051JZ  25344.28021290  .00026918  00000+0  12661-1 0  9991", "line2": "2 34648  86.3905 282.9390 0183532 306.5499  51.8907 14.11372346849260"}}, "geometry": {"type": "Point", "coordinates": [-89.5876097009856, -73.60616392240186]}}, {"type": "Feature", "properties": {"norad_id": 34651, "name": "IRIDIUM 33 DEB", "group": "iridium-33-debris", "lat": -55.758001982064556, "lon": -33.04374296357027, "alt_km": 720.5055556538337, "timestamp": "2025-12-10T14:53:37.473475+00:00", "meta": {"OBJECT_NAME": "IRIDIUM 33 DEB", "OBJECT_ID": "1997-051KC", "EPOCH": "2025-12-09T17:34:37.579296", "MEAN_MOTION": 14.25734133, "ECCENTRICITY": 0.0142017, "INCLINATION": 86.2849, "RA_OF_ASC_NODE": 141.8564, "ARG_OF_PERICENTER": 213.5103, "MEAN_ANOMALY": 145.7045, "EPHEMERIS_TYPE": 0, "CLASSIFICATION_TYPE": "U", "NORAD_CAT_ID": 34651, "ELEMENT_SET_NO": 999, "REV_AT_EPOCH": 85853, "BSTAR": 0.0052670304, "MEAN_MOTION_DOT": 0.0001393, "MEAN_MOTION_DDOT": 0}, "tle": {"line1": "1 34651U 97051KC  25343.73237939  .00013930  00000+0  52670-2 0  9998", "line2": "2 34651  86.2849 141.8564 0142017 213.5103 145.7045 14.25734133858535"}}, "geometry": {"type": "Point", "coordinates": [-33.04374296357027, -55.758001982064556]}}, {"type": "Feature", "properties": {"norad_id": 34652, "name": "IRIDIUM 33 DEB", "group": "iridium-33-debris", "lat": 10.256465201950684, "lon": -18.38977626584317, "alt_km": 680.1874177464388, "timestamp": "2025-12-10T14:53:37.473484+00:00", "meta": {"OBJECT_NAME": "IRIDIUM 33 DEB", "OBJECT_ID": "1997-051KD", "EPOCH": "2025-12-09T11:37:22.959264", "MEAN_MOTION": 14.62008914, "ECCENTRICITY": 0.00262076, "INCLINATION": 86.3314, "RA_OF_ASC_NODE": 341.4507, "ARG_OF_PERICENTER": 310.1115, "MEAN_ANOMALY": 203.3524, "EPHEMERIS_TYPE": 0, "CLASSIFICATION_TYPE": "U", "NORAD_CAT_ID": 34652, "ELEMENT_SET_NO": 999, "REV_AT_EPOCH": 88436, "BSTAR": 0.0015009226, "MEAN_MOTION_DOT": 7.584e-05, "MEAN_MOTION_DDOT": 0}, "tle": {"line1": "1 34652U 97051KD  25343.48429351  .00007584  00000+0  15009-2 0  9995", "line2": "2 34652  86.3314 341.4507 0026207 310.1115 203.3524 14.62008914884363"}}, "geometry": {"type": "Point", "coordinates": [-18.38977626584317, 10.256465201950684]}}, {"type": "Feature", "properties": {"norad_id": 34690, "name": "IRIDIUM 33 DEB", "group": "iridium-33-debris", "lat": -73.80274396259368, "lon": 25.31705065144372, "alt_km": 719.1669921159264, "timestamp": "2025-12-10T14:53:37.473493+00:00", "meta": {"OBJECT_NAME": "IRIDIUM 33 DEB", "OBJECT_ID": "1997-051KM", "EPOCH": "2025-12-09T15:10:43.095936", "MEAN_MOTION": 14.55078564, "ECCENTRICITY": 0.001121, "INCLINATION": 86.378, "RA_OF_ASC_NODE": 38.3417, "ARG_OF_PERICENTER": 38.8624, "MEAN_ANOMALY": 114.3139, "EPHEMERIS_TYPE": 0, "CLASSIFICATION_TYPE": "U", "NORAD_CAT_ID": 34690, "ELEMENT_SET_NO": 999, "REV_AT_EPOCH": 88049, "BSTAR": 0.00073259, "MEAN_MOTION_DOT": 3.182e-05, "MEAN_MOTION_DDOT": 0}, "tle": {"line1": "1 34690U 97051KM  25343.63244324  .00003182  00000+0  73259-3 0  9991", "line2": "2 34690  86.3780  38.3417 0011210  38.8624 114.3139 14.55078564880494"}}, "geometry": {"type": "Point", "coordinates": [25.31705065144372, -73.80274396259368]}}, {"type": "Feature", "properties": {"norad_id": 34693, "name": "IRIDIUM 33 DEB", "group": "iridium-33-debris", "lat": 37.39272693031904, "lon": 122.04631550154019, "alt_km": 481.61031621875827, "timestamp": "2025-12-10T14:53:37.473502+00:00", "meta": {"OBJECT_NAME": "IRIDIUM 33 DEB", "OBJECT_ID": "1997-051KQ", "EPOCH": "2025-12-09T21:06:11.395584", "MEAN_MOTION": 15.26837164, "ECCENTRICITY": 0.00146362, "INCLINATION": 86.3062, "RA_OF_ASC_NODE": 305.2443, "ARG_OF_PERICENTER": 57.3276, "MEAN_ANOMALY": 332.8894, "EPHEMERIS_TYPE": 0, "CLASSIFICATION_TYPE": "U", "NORAD_CAT_ID": 34693, "ELEMENT_SET_NO": 999, "REV_AT_EPOCH": 88871, "BSTAR": 0.0064612782, "MEAN_MOTION_DOT": 0.00174516, "MEAN_MOTION_DDOT": 0}, "tle": {"line1": "1 34693U 97051KQ  25343.87929856  .00174516  00000+0  64613-2 0  9993", "line2": "2 34693  86.3062 305.2443 0014636  57.3276 332.8894 15.26837164888715"}}, "geometry": {"type": "Point", "coordinates": [122.04631550154019, 37.39272693031904]}}, {"type": "Feature", "properties": {"norad_id": 34696, "name": "IRIDIUM 33 DEB", "group": "iridium-33-debris", "lat": -11.241173742869794, "lon": 27.74798444768089, "alt_km": 733.8799572546195, "timestamp": "2025-12-10T14:53:37.473511+00:00", "meta": {"OBJECT_NAME": "IRIDIUM 33 DEB", "OBJECT_ID": "1997-051KT", "EPOCH": "2025-12-10T03:43:16.862592", "MEAN_MOTION": 14.64869835, "ECCENTRICITY": 0.00742093, "INCLINATION": 86.1846, "RA_OF_ASC_NODE": 28.7244, "ARG_OF_PERICENTER": 176.2548, "MEAN_ANOMALY": 239.1587, "EPHEMERIS_TYPE": 0, "CLASSIFICATION_TYPE": "U", "NORAD_CAT_ID": 34696, "ELEMENT_SET_NO": 999, "REV_AT_EPOCH": 86635, "BSTAR": 0.0072837152, "MEAN_MOTION_DOT": 0.00040722, "MEAN_MOTION_DDOT": 0}, "tle": {"line1": "1 34696U 97051KT  25344.15505628  .00040722  00000+0  72837-2 0  9993", "line2": "2 34696  86.1846  28.7244 0074209 176.2548 239.1587 14.64869835866352"}}, "geometry": {"type": "Point", "coordinates": [27.74798444768089, -11.241173742869794]}}, {"type": "Feature", "properties": {"norad_id": 34765, "name": "IRIDIUM 33 DEB", "group": "iridium-33-debris", "lat": 65.71366451044481, "lon": 41.827201855776956, "alt_km": 760.2944632060435, "timestamp": "2025-12-10T14:53:37.473521+00:00", "meta": {"OBJECT_NAME": "IRIDIUM 33 DEB", "OBJECT_ID": "1997-051LJ", "EPOCH": "2025-12-09T21:03:36.021600", "MEAN_MOTION": 14.4045462, "ECCENTRICITY": 0.00151479, "INCLINATION": 86.3395, "RA_OF_ASC_NODE": 33.9898, "ARG_OF_PERICENTER": 221.4768, "MEAN_ANOMALY": 313.7613, "EPHEMERIS_TYPE": 0, "CLASSIFICATION_TYPE": "U", "NORAD_CAT_ID": 34765, "ELEMENT_SET_NO": 999, "REV_AT_EPOCH": 87572, "BSTAR": 0.0007056959, "MEAN_MOTION_DOT": 2.264e-05, "MEAN_MOTION_DDOT": 0}, "tle": {"line1": "1 34765U 97051LJ  25343.87750025  .00002264  00000+0  70570-3 0  9993", "line2": "2 34765  86.3395  33.9898 0015147 221.4768 313.7613 14.40454620875722"}}, "geometry": {"type": "Point", "coordinates": [41.827201855776956, 65.71366451044481]}}]}